     2.100          NAVIGATION                              RINEX VERSION / TYPE
fic2rin                                 09/06/2015 00:07:12 PGM / RUN BY / DATE
                                                            END OF HEADER
27 15  9  5 10  0  0.0  .173039734364D-04  .295585778076D-11  .000000000000D+00
     .740000000000D+02 -.629375000000D+02  .431160816722D-08 -.166910943368D+00
    -.338628888130D-05  .264825206250D-02  .937096774578D-05  .515370345879D+04
     .554400000000D+06  .167638063431D-07  .154219771493D+01  .447034835815D-07
     .968187501101D+00  .200156250000D+03  .324988269500D+00 -.800533345427D-08
    -.282154610015D-10  .100000000000D+01  .186000000000D+04  .000000000000D+00
     .240000000000D+01  .000000000000D+00  .139698386192D-08  .740000000000D+02
     .547206000000D+06  .400000000000D+01
28 15  9  5 10  0  0.0  .465416349471D-03  .261479726760D-11  .000000000000D+00
     .440000000000D+02 -.318750000000D+02  .422231873367D-08  .703831817077D+00
    -.173225998878D-05  .196477565914D-01  .568106770515D-05  .515369880104D+04
     .554400000000D+06 -.225380063057D-06  .570606802212D+00 -.502914190292D-07
     .989355574608D+00  .292687500000D+03 -.165848005963D+01 -.837784897104D-08
    -.202865593023D-09  .100000000000D+01  .186000000000D+04  .000000000000D+00
     .240000000000D+01  .000000000000D+00 -.111758708954D-07  .440000000000D+02
     .547206000000D+06  .400000000000D+01
29 15  9  5 10  0  0.0  .632315408438D-03  .227373675443D-11  .000000000000D+00
     .740000000000D+02 -.446250000000D+02  .413052919598D-08  .232302699206D+01
    -.236928462982D-05  .919881276786D-03  .924617052078D-05  .515370525932D+04
     .554400000000D+06 -.353902578354D-07  .160004909126D+01 -.186264514923D-08
     .974146735933D+00  .207843750000D+03 -.440057820003D+00 -.782818321811D-08
     .157149403046D-10  .100000000000D+01  .186000000000D+04  .000000000000D+00
     .240000000000D+01  .000000000000D+00 -.102445483208D-07  .740000000000D+02
     .547206000000D+06  .400000000000D+01
31 15  9  5 10  0  0.0  .303940381855D-03 -.136424205266D-11  .000000000000D+00
     .730000000000D+02  .691250000000D+02  .443161316591D-08 -.294222134427D+01
     .374019145966D-05  .807640212588D-02  .538863241673D-05  .515358610153D+04
     .554400000000D+06 -.819563865662D-07 -.515350563562D+00  .502914190292D-07
     .974162441822D+00  .282937500000D+03 -.524043848918D+00 -.803962059675D-08
     .178578867098D-09  .100000000000D+01  .186000000000D+04  .000000000000D+00
     .240000000000D+01  .000000000000D+00 -.135041773319D-07  .730000000000D+02
     .547206000000D+06  .400000000000D+01
32 15  9  5 10  0  0.0 -.523431226611D-04  .109139364213D-10  .000000000000D+00
     .150000000000D+02 -.990625000000D+01  .483448709008D-08 -.246483982613D+01
    -.538304448128D-06  .113076844718D-01  .826641917229D-05  .515369225883D+04
     .554400000000D+06 -.106170773506D-06 -.256236780829D+01 -.124797224998D-06
     .947117764948D+00  .213250000000D+03  .111842220095D+00 -.809426573009D-08
    -.928610108910D-10  .100000000000D+01  .186000000000D+04  .000000000000D+00
     .240000000000D+01  .000000000000D+00 -.372529029846D-08  .150000000000D+02
     .547206000000D+06  .400000000000D+01
18 15  9  5  9 59 44.0  .431422609836D-03  .318323145621D-11  .000000000000D+00
     .400000000000D+01 -.176562500000D+02  .547344227655D-08  .142542036849D+01
    -.104308128357D-05  .163724926533D-01  .782310962677D-05  .515362482071D+04
     .554384000000D+06 -.352039933205D-06 -.266662998419D+01 -.184401869774D-06
     .925310802932D+00  .211906250000D+03 -.193880013563D+01 -.862893085818D-08
    -.176793078427D-09  .100000000000D+01  .186000000000D+04  .000000000000D+00
     .240000000000D+01  .000000000000D+00 -.111758708954D-07  .400000000000D+01
     .547506000000D+06  .400000000000D+01
22 15  9  5  9 59 44.0  .388290267438D-03  .375166564481D-11  .000000000000D+00
     .300000000000D+01 -.129375000000D+02  .554951687394D-08  .944192644156D+00
    -.661239027977D-06  .803194602486D-02  .764057040215D-05  .515367822647D+04
     .554384000000D+06 -.124797224998D-06 -.266564346977D+01  .931322574615D-08
     .923135631002D+00  .213312500000D+03 -.203970950664D+01 -.861357307561D-08
    -.229295265354D-09  .100000000000D+01  .186000000000D+04  .000000000000D+00
     .240000000000D+01  .000000000000D+00 -.176951289177D-07  .300000000000D+01
     .553266000000D+06  .400000000000D+01
 5 15  9  5  9 59 44.0 -.198822468519D-03  .409272615798D-11  .000000000000D+00
     .500000000000D+01 -.116562500000D+02  .490127558637D-08  .764558817824D+00
    -.469386577606D-06  .433698319830D-02  .750645995140D-05  .515363297844D+04
     .554384000000D+06 -.298023223877D-07 -.265128318063D+01  .689178705215D-07
     .946712955035D+00  .226000000000D+03  .405399463521D+00 -.826855870437D-08
    -.148934775160D-09  .100000000000D+01  .186000000000D+04  .000000000000D+00
     .240000000000D+01  .000000000000D+00 -.107102096081D-07  .500000000000D+01
     .553446000000D+06  .400000000000D+01
 5 15  9  5 11 59 44.0 -.198792666197D-03  .409272615798D-11  .000000000000D+00
     .120000000000D+02 -.101562500000D+02  .498235039204D-08  .181488933146D+01
    -.478699803352D-06  .433687062468D-02  .757537782192D-05  .515363195992D+04
     .561584000000D+06 -.353902578354D-07 -.265134242589D+01 -.558793544769D-08
     .946711628168D+00  .229531250000D+03  .405277877473D+00 -.826748723117D-08
    -.203937066226D-09  .100000000000D+01  .186000000000D+04  .000000000000D+00
     .240000000000D+01  .000000000000D+00 -.107102096081D-07  .120000000000D+02
     .554406000000D+06  .400000000000D+01
22 15  9  5 11 59 44.0  .388317275792D-03  .375166564481D-11  .000000000000D+00
     .700000000000D+01 -.147812500000D+02  .547558522296D-08  .199433528985D+01
    -.882893800735D-06  .803194195032D-02  .746734440327D-05  .515367887497D+04
     .561584000000D+06 -.596046447754D-07 -.266570552529D+01 -.175088644028D-06
     .923134838100D+00  .214875000000D+03 -.203966665045D+01 -.844499462507D-08
    -.167864135072D-09  .100000000000D+01  .186000000000D+04  .000000000000D+00
     .240000000000D+01  .000000000000D+00 -.176951289177D-07  .700000000000D+01
     .554406000000D+06  .400000000000D+01
 1 15  9  5 12  0  0.0 -.535510480404D-07  .682121026330D-12  .000000000000D+00
     .840000000000D+02 -.127500000000D+02  .455768984608D-08 -.121352476733D+01
    -.657513737679D-06  .466638989747D-02  .791810452938D-05  .515365699196D+04
     .561600000000D+06  .137835741043D-06  .259977227413D+01 -.763684511185D-07
     .962958032713D+00  .229937500000D+03  .461570997348D+00 -.800104756146D-08
     .173578658819D-09  .100000000000D+01  .186000000000D+04  .000000000000D+00
     .240000000000D+01  .000000000000D+00  .512227416039D-08  .840000000000D+02
     .554406000000D+06  .400000000000D+01
 2 15  9  5 12  0  0.0  .587516929954D-03  .170530256582D-11  .000000000000D+00
     .470000000000D+02 -.759375000000D+01  .519450208615D-08 -.660914414675D+00
    -.312924385071D-06  .147505908972D-01  .775232911110D-05  .515362034225D+04
     .561600000000D+06  .391155481339D-07  .256001664877D+01  .258907675743D-06
     .941597510870D+00  .222468750000D+03 -.223512096151D+01 -.855571352267D-08
     .122505102829D-09  .100000000000D+01  .186000000000D+04  .000000000000D+00
     .240000000000D+01  .000000000000D+00 -.204890966415D-07  .470000000000D+02
     .554406000000D+06  .400000000000D+01
 3 15  9  5 12  0  0.0  .200839713216D-04  .136424205266D-11  .000000000000D+00
     .450000000000D+02 -.104062500000D+02  .458947688442D-08  .754094169815D+00
    -.430271029472D-06  .633019139059D-03  .791624188423D-05  .515360560226D+04
     .561600000000D+06 -.614672899246D-07 -.264297224793D+01  .819563865662D-07
     .959530667275D+00  .226468750000D+03 -.258208792790D+01 -.800676208521D-08
    -.181793286706D-09  .100000000000D+01  .186000000000D+04  .000000000000D+00
     .240000000000D+01  .000000000000D+00  .186264514923D-08  .450000000000D+02
     .554406000000D+06  .400000000000D+01
 4 15  9  5 12  0  0.0 -.173365697265D-04 -.397903932026D-11  .000000000000D+00
     .340000000000D+02 -.550000000000D+01  .511449875369D-08 -.142266412111D+01
    -.242143869400D-06  .118230383378D-01  .759772956371D-05  .515365095711D+04
     .561600000000D+06  .303611159325D-06  .257516213725D+01  .191852450371D-06
     .940691091217D+00  .221312500000D+03  .109360844781D+01 -.826963017758D-08
     .153934983439D-09  .100000000000D+01  .186000000000D+04  .000000000000D+00
     .240000000000D+01  .000000000000D+00 -.651925802231D-08  .340000000000D+02
     .554406000000D+06  .400000000000D+01
 6 15  9  5 12  0  0.0  .520623289049D-04  .750333128963D-11  .000000000000D+00
     .130000000000D+02 -.156875000000D+02  .461090634847D-08  .106919379921D+01
    -.812113285065D-06  .124645885080D-03  .808946788311D-05  .515353438377D+04
     .561600000000D+06  .447034835815D-07  .259130140937D+01 -.130385160446D-07
     .962820524265D+00  .225062500000D+03  .282847339103D+01 -.806247869174D-08
     .167864135072D-09  .100000000000D+01  .186000000000D+04  .000000000000D+00
     .240000000000D+01  .000000000000D+00  .419095158577D-08  .130000000000D+02
     .554406000000D+06  .400000000000D+01
 7 15  9  5 12  0  0.0  .483493320644D-03  .181898940355D-11  .000000000000D+00
     .720000000000D+02  .678437500000D+02  .444339937113D-08 -.185449136943D+01
     .321120023727D-05  .893439282663D-02  .577792525291D-05  .515370039177D+04
     .561600000000D+06  .819563865662D-07 -.523595537673D+00 -.119209289551D-06
     .969290365783D+00  .271468750000D+03 -.271122009443D+01 -.812998150351D-08
     .298583865788D-09  .100000000000D+01  .186000000000D+04  .000000000000D+00
     .240000000000D+01  .000000000000D+00 -.111758708954D-07  .720000000000D+02
     .554406000000D+06  .400000000000D+01
